GLOBALSTAR M094         
1 39074U 13005C   24171.51401920 -.00000066  00000+0  21310-3 0  9991
2 39074  51.9933 206.3511 0000429 176.3608 183.7262 12.62267210526572
GLOBALSTAR M096         
1 39075U 13005D   24171.60634950 -.00000074  00000+0  16381-3 0  9994
2 39075  52.0070 254.3019 0000820 153.3572 206.7337 12.62266981525508
GLOBALSTAR M078         
1 39076U 13005E   24171.58019420 -.00000184  00000+0 -44563-3 0  9997
2 39076  51.9894 339.3851 0001750  98.3305 261.7760 12.62273127524122
GLOBALSTAR M095         
1 39077U 13005F   24171.60607276 -.00000104  00000+0 -19356-5 0  9999
2 39077  51.9818 336.6793 0001438 116.9265 243.1749 12.62264020523985
GLOBALSTAR M087         
1 52888U 22064A   24171.49993697 -.00000085  00000+0  83097-4 0  9990
2 52888  51.9735 200.3176 0009356  12.0952 348.0171 13.37576870 97832
